[{"OBJECT_NAME":"STARLINK-1542","OBJECT_ID":"2020-055AY","EPOCH":"2026-03-09T08:16:16.970304","MEAN_MOTION":15.06405667,"ECCENTRICITY":0.00014594,"INCLINATION":53.0559,"RA_OF_ASC_NODE":98.1686,"ARG_OF_PERICENTER":82.5697,"MEAN_ANOMALY":277.5458,"EPHEMERIS_TYPE":0,"CLASSIFICATION_TYPE":"U","NORAD_CAT_ID":46073,"ELEMENT_SET_NO":999,"REV_AT_EPOCH":30925,"BSTAR":6.5930779e-5,"MEAN_MOTION_DOT":7.01e-6,"MEAN_MOTION_DDOT":0},{"OBJECT_NAME":"MINOTAUR 4 DEB","OBJECT_ID":"2020-046AB","EPOCH":"2026-03-09T21:53:22.840224","MEAN_MOTION":15.04149387,"ECCENTRICITY":0.00103054,"INCLINATION":53.9803,"RA_OF_ASC_NODE":316.6393,"ARG_OF_PERICENTER":80.1776,"MEAN_ANOMALY":280.0387,"EPHEMERIS_TYPE":0,"CLASSIFICATION_TYPE":"U","NORAD_CAT_ID":52037,"ELEMENT_SET_NO":999,"REV_AT_EPOCH":22693,"BSTAR":0.00012711185,"MEAN_MOTION_DOT":1.507e-5,"MEAN_MOTION_DDOT":0}]
